ONEWEB-0647             
1 56079U 23043AK  23318.65648201  .00000151  00000+0  36721-3 0  9996
2 56079  87.8991  87.4666 0001583  84.2409 275.8902 13.15546137 32107
ONEWEB-0651             
1 56080U 23043AL  23319.41228786 -.00000003  00000+0 -43249-4 0  9997
2 56080  87.8985  87.2879 0001905  88.4546 271.6803 13.15549989 32205
ONEWEB-0718             
1 56081U 23043AM  23319.40754315  .00000029  00000+0  43731-4 0  9991
2 56081  87.8921  87.2869 0001756 121.0855 239.0448 13.15549997 33120
GSLV R/B                
1 56082U 23043AN  23318.53543403  .00042607  00000+0  72288-3 0  9995
2 56082  87.4137  59.5387 0019532 192.3236 167.7550 15.51106172 35992
ONEWEB-0561             
1 56710U 23068A   23319.47257909  .00000015  00000+0  52785-5 0  9996
2 56710  88.2898  97.7084 0001322  66.2897 293.8383 13.34313651 25323
ONEWEB-0668             
1 56711U 23068B   23319.33874715  .00001929  00000+0  25860-3 0  9999
2 56711  86.7246  67.1705 0013553 323.6302  36.3997 14.78813193 27266
ONEWEB-0676             
1 56712U 23068C   23319.35472244  .00002697  00000+0  36409-3 0  9997
2 56712  86.7198  67.0813 0013449 324.8439  35.1893 14.78693742 27268
ONEWEB-0677             
1 56713U 23068D   23319.45507178 -.00000001  00000+0 -27483-4 0  9996
2 56713  88.3238  95.7122 0002288  85.4940 274.6463 13.34761975 25502
